[{"OBJECT_NAME":"AEROCUBE 6B","OBJECT_ID":"2014-033AN","EPOCH":"2026-03-09T10:13:48.857088","MEAN_MOTION":14.98232474,"ECCENTRICITY":0.00374529,"INCLINATION":97.7129,"RA_OF_ASC_NODE":236.1645,"ARG_OF_PERICENTER":343.23,"MEAN_ANOMALY":16.7681,"EPHEMERIS_TYPE":0,"CLASSIFICATION_TYPE":"U","NORAD_CAT_ID":40046,"ELEMENT_SET_NO":999,"REV_AT_EPOCH":63181,"BSTAR":0.00066368498,"MEAN_MOTION_DOT":7.941e-5,"MEAN_MOTION_DDOT":0},{"OBJECT_NAME":"STARLINK-6315","OBJECT_ID":"2023-094U","EPOCH":"2026-03-09T22:00:01.999584","MEAN_MOTION":15.06069838,"ECCENTRICITY":3.615e-5,"INCLINATION":43.0006,"RA_OF_ASC_NODE":16.6045,"ARG_OF_PERICENTER":283.2103,"MEAN_ANOMALY":240.5881,"EPHEMERIS_TYPE":0,"CLASSIFICATION_TYPE":"U","NORAD_CAT_ID":57236,"ELEMENT_SET_NO":999,"REV_AT_EPOCH":577,"BSTAR":0.0020929095,"MEAN_MOTION_DOT":0.00031003,"MEAN_MOTION_DDOT":0}]
